0 TBA - TO BE ASSIGNED
1 89184U          21209.47566297 +.00001135 +00000+0 +38171-3 0  9992
2 89184  98.4912  44.2917 0019179 342.7498  17.3035 14.38950803260262
0 TBA - TO BE ASSIGNED
1 89195U          21204.90421042 +.00000737 +00000+0 +33992-3 0  9998
2 89195  98.7969 267.3980 0031393 210.1696 149.7675 14.23864851298944
0 TBA - TO BE ASSIGNED
1 89206U          21210.50335614 +.00001209 +00000+0 +53153-3 0  9999
2 89206  98.7279 232.6007 0031488 144.6674 215.6600 14.25109567257874
0 TBA - TO BE ASSIGNED
1 89213U          21210.25647989 +.00000091 +00000+0 +87014-4 0  9992
2 89213  98.8691 137.8792 0233353 171.2218 189.3132 13.89076621230728
0 TBA - TO BE ASSIGNED
1 89218U          21206.32027346 -.00000159 +00000+0 -99286-4 0  9990
2 89218 100.3588 344.1483 0104702 167.3598 193.0213 13.79903040372394
0 TBA - TO BE ASSIGNED
1 89255U          21206.87934861 +.00000529 +00000+0 +73901-3 0  9994
2 89255  98.6374 179.4163 0362896 185.8406 173.8435 13.37286495280914
0 TBA - TO BE ASSIGNED
1 89261U          21208.92358378 +.00000121 +00000+0 +52593-4 0  9995
2 89261  98.2490 252.8094 0012539 318.8978  41.1265 14.39172707303617
0 TBA - TO BE ASSIGNED
1 89281U          21208.47272083 +.00001620 +00000+0 +48949-3 0  9999
2 89281  99.3272 296.2567 0016766 224.3350 197.3265 14.43894341403072
0 TBA - TO BE ASSIGNED
1 89285U          21210.64103837 +.00173435 +55655-5 +54290-2 0  9996
2 89285  62.9050 302.9468 1780575  93.5940 286.9299 11.89314333178424
0 TBA - TO BE ASSIGNED
1 89304U          21210.21577744 +.00005734 +00000+0 +49675-1 0  9997
2 89304  84.9921 120.8170 2565765 157.2654 357.3482  8.85273109296062
0 TBA - TO BE ASSIGNED
1 89314U          21210.12814148 +.00001289 +00000+0 +20729-2 0  9991
2 89314  18.7472 139.5518 7160497  99.1442 340.8077  2.37290018 49320
0 TBA - TO BE ASSIGNED
1 89327U          21210.17880328 +.00000161 +00000+0 +12600-3 0  9991
2 89327  82.5453 177.3609 0014232 349.9410  10.1465 13.86411780252963
0 TBA - TO BE ASSIGNED
1 89341U          21210.02979641 +.00105475 +00000+0 +10694-2 0  9992
2 89341  98.1794 234.4470 0007429  97.4412 262.7690 15.64865919375458
0 TBA - TO BE ASSIGNED
1 89347U          21210.54663910 +.00005058 +00000+0 +94529-3 0  9990
2 89347  86.2802 316.1633 0048254 237.6441 122.0096 14.63988598263464
0 TBA - TO BE ASSIGNED
1 89349U          21210.04385890 -.00000047 +00000+0 -19334-3 0  9991
2 89349  90.2796 330.1916 0033503 141.0581 219.2961 12.95520630271839
0 TBA - TO BE ASSIGNED
1 89379U          21210.65825048 -.00000024 +00000+0 +40897-4 0  9998
2 89379 100.5497 106.0746 0057081  38.0171 322.4968 13.47932148364659
0 TBA - TO BE ASSIGNED
1 89381U          21209.85649472 +.00007628 +00000+0 +13589-2 0  9998
2 89381  98.7682 353.5128 0073956  68.9374 291.9715 14.65569235241822
0 TBA - TO BE ASSIGNED
1 89389U          21209.05269052 +.00001584 +00000+0 +24315-3 0  9995
2 89389  74.0506 342.2362 0082916  78.7089 282.3387 14.72190135306700
0 TBA - TO BE ASSIGNED
1 89390U          21210.18112220 +.00007651 +00000+0 +71255-3 0  9993
2 89390  98.9708 349.4624 0036652 358.2631   1.8452 14.94122603395227
0 TBA - TO BE ASSIGNED
1 89391U          21210.40587777 +.00001229 +00000+0 +11928-3 0  9998
2 89391  97.4111  17.1560 0202678 353.3412   6.5115 14.80256792188853
0 TBA - TO BE ASSIGNED
1 89395U          21210.07108801 -.00000292 +00000+0 -28355-2 0  9994
2 89395 102.3610 252.7455 0221539 327.3801  89.2985 12.01119359332893
0 TBA - TO BE ASSIGNED
1 89400U          21210.41214151 +.00010345 +00000+0 +78179+0 0  9999
2 89400  63.1237 147.7886 2292393  97.3207 289.1613  8.15254545218396
0 TBA - TO BE ASSIGNED
1 89403U          21210.11807726 +.00000874 +00000+0 +30187-2 0  9991
2 89403  90.2767 328.5902 0030216 136.2618  40.7297 12.96541779270644
0 TBA - TO BE ASSIGNED
1 89438U          21210.47647423 +.00019703 +00000+0 +13042-2 0  9996
2 89438  86.3699 282.8526 0011571  58.5028 301.7337 15.07179830308243
0 TBA - TO BE ASSIGNED
1 89453U          21210.22204847 +.00004822 +00000+0 +33998-3 0  9994
2 89453  97.2658  30.9484 0147077 178.5366 181.6318 14.97007924267655
0 TBA - TO BE ASSIGNED
1 89460U          21210.30846201 +.00000159 +00000+0 +40108-3 0  9997
2 89460 100.2921 343.8346 0058958 135.9173 224.6673 13.35065135219755
0 TBA - TO BE ASSIGNED
1 89483U          21210.19040251 +.00001111 +00000+0 +13135-3 0  9999
2 89483  99.4951 195.3410 0265114 260.0005  97.1183 14.65611648262434
0 TBA - TO BE ASSIGNED
1 89484U          21208.58073242 +.00000503 +00000+0 +81824-2 0  9999
2 89484  85.1943 175.9135 2396104 206.9214 138.4622  8.83492581212699
0 TBA - TO BE ASSIGNED
1 89490U          21210.39917770 +.00001448 +00000+0 +71406-3 0  9996
2 89490  98.3721 192.8603 0129415 219.7628 139.4007 14.14672920253187
0 TBA - TO BE ASSIGNED
1 89492U          21208.49811521 +.00000625 +00000+0 +46111-3 0  9994
2 89492  82.5301 277.0018 0026173 229.6792 130.2087 13.93938839344158
0 TBA - TO BE ASSIGNED
1 89493U          21210.29848556 +.00000870 +00000+0 +53545-3 0  9995
2 89493  99.1432 242.7357 0092682 196.1056 163.7160 14.06187978238826
0 TBA - TO BE ASSIGNED
1 89494U          21209.31376541 +.00000819 +00000+0 +50598-3 0  9995
2 89494  99.1434 241.7449 0093153 198.8589 160.9119 14.06166257238543
0 TBA - TO BE ASSIGNED
1 89496U          21210.05535273 +.00004951 +00000+0 +62411-3 0  9997
2 89496  98.8926 244.0478 0092770  38.6544 322.1256 14.79492757242727
0 TBA - TO BE ASSIGNED
1 T0000U          21210.53601011 -.00000084  00000-0 -32641-3 0  9996
2 T0000  90.2896 306.3120 0033361 122.7346 237.6997 12.95197543 79142
0 TBA - TO BE ASSIGNED
1 T0001U          21210.07292815  .00000029  00000-0  50608-3 0  9994
2 T0001 101.6822 335.9236 0042677  11.9438 348.2632 12.45288273 76054
0 TBA - TO BE ASSIGNED
1 T0003U          21208.79416234  .00000741  00000-0  13291-2 0  9992
2 T0003  99.6563  31.3439 0535108 314.9034  40.9795 12.99974068 79164
0 TBA - TO BE ASSIGNED
1 T0004U          21206.93529889 -.00000033  00000-0  77429-4 0  9998
2 T0004 101.7243  83.2098 0161485 212.4624 146.6416 12.23675131 74369
0 TBA - TO BE ASSIGNED
1 T0005U          21210.12740113  .00001205  00000-0  11429-1 0  9996
2 T0005 103.3301 340.7841 0345394 332.3432  25.9609 12.10124822 73917
0 TBA - TO BE ASSIGNED
1 T0006U          21210.13217003 -.00000025  00000-0  14957-3 0  9996
2 T0006 102.0080 161.0589 0094061 339.5490  20.1819 12.38745295 75663
0 TBA - TO BE ASSIGNED
1 T0007U          21210.02297368  .00000414  00000-0  69692-3 0  9994
2 T0007  31.9966 322.3850 0565637 241.2090 113.0568 12.90955387 78969
0 TBA - TO BE ASSIGNED
1 T0008U          21208.14159129  .00000651  00000-0  22339-2 0  9996
2 T0008  90.2654 345.9336 0035596  87.1312 273.3881 12.96766218 78903
0 TBA - TO BE ASSIGNED
1 T0009U          21208.22048050  .00000003  00000-0 -77952-4 0  9991
2 T0009  82.5025  28.3125 0052610   2.1764 357.9505 11.90642416 72454
0 TBA - TO BE ASSIGNED
1 T0010U          21210.26867323  .00001749  00000-0  68020-2 0  9993
2 T0010 103.9416 202.8899 0420131 109.7386 254.9495 12.65878217 77212
0 TBA - TO BE ASSIGNED
1 T0011U          21210.51316081  .00002991  00000-0  87682-2 0  9997
2 T0011  99.4759 134.4682 0086431  30.4023 330.2061 13.08295128 79830
0 TBA - TO BE ASSIGNED
1 T0012U          21210.56759793 -.00000225  00000-0 -81302-3 0  9998
2 T0012  90.2860 318.2064 0036367  87.6777 272.8506 12.96276260 79200
0 TBA - TO BE ASSIGNED
1 T0013U          21208.18186448  .00000070  00000-0  11026-2 0  9996
2 T0013 102.4490 172.6265 0156022  93.6175 268.2730 12.16306347 74048
0 TBA - TO BE ASSIGNED
1 T0014U          21210.20333335  .00000023  00000-0  41473-3 0  9990
2 T0014 101.6355 181.7815 0061764 250.6729 108.7658 12.54617239 76552
0 TBA - TO BE ASSIGNED
1 T0015U          21208.55141771  .00000826  00000-0  25944-2 0  9992
2 T0015  90.2859 321.4718 0028628 243.3602 116.4589 13.03226406 79358
0 TBA - TO BE ASSIGNED
1 T0016U          21207.79795299  .00000314  00000-0  29170-3 0  9996
2 T0016  98.6385  51.3151 0242404 181.5726 178.4691 13.76176945 83523
0 TBA - TO BE ASSIGNED
1 T0017U          21205.12470256  .00000854  00000-0  27936-2 0  9991
2 T0017  90.2784 339.3744 0035521 327.1940  32.6977 13.00380464 78733
0 TBA - TO BE ASSIGNED
1 T0018U          21208.72504459  .00001121  00000-0  86137-3 0  9991
2 T0018  99.7557 183.9948 0069732 104.5152 256.3755 13.94334355 84869
0 TBA - TO BE ASSIGNED
1 T0019U          21210.30118385  .00000356  00000-0  12433-2 0  9994
2 T0019  90.2813 328.9563 0052301 180.4545 179.6535 12.94548576 78999
0 TBA - TO BE ASSIGNED
1 T0020U          21208.19807965  .00000706  00000-0  56928-3 0  9996
2 T0020  82.5351  14.9210 0022292  36.4649 323.8027 13.89035832 84452
0 TBA - TO BE ASSIGNED
1 T0021U          21210.43239315  .00000204  00000-0  10349-2 0  9994
2 T0021  82.7172 109.9475 0055686 129.5476 231.0556 12.64714080 77077
0 TBA - TO BE ASSIGNED
1 T0022U          21209.92184262 -.00001789  00000-0 -55451-2 0  9991
2 T0022 100.0256 280.5203 0679277 148.9796 215.3299 12.43591561 75800
0 TBA - TO BE ASSIGNED
1 T0023U          21207.88094575  .00000045  00000-0  43548-3 0  9999
2 T0023  73.6371 255.9439 0024487 214.5500 145.3956 12.44953378 75554
0 TBA - TO BE ASSIGNED
1 T0024U          21208.56332926 -.00000074  00000-0  16461-3 0  9998
2 T0024  51.9814 318.2348 0001147 104.3629 255.7365 12.62365761 76930
0 TBA - TO BE ASSIGNED
1 T0025U          21210.26698227  .00000234  00000-0  13720-3 0  9990
2 T0025  98.4506 215.0125 0082544   9.0740 351.1904 14.15078894 86396
0 TBA - TO BE ASSIGNED
1 T0026U          21208.51724698  .00000179  00000-0  25604-2 0  9999
2 T0026 103.3138 307.3628 0382767 329.9752  27.9821 11.90170529 72450
0 TBA - TO BE ASSIGNED
1 T0027U          21208.73663138  .00000409  00000-0  49107-2 0  9995
2 T0027 101.0062  26.2560 0542207  39.4815 324.4451 11.76487979 71675
0 TBA - TO BE ASSIGNED
1 T0029U          21210.16697083  .00000408  00000-0  32175-3 0  9990
2 T0029  82.5240   9.1783 0015172 325.9531  34.0657 13.89430053 84616
